OBJECT_NAME,OBJECT_ID,EPOCH,MEAN_MOTION,ECCENTRICITY,INCLINATION,RA_OF_ASC_NODE,ARG_OF_PERICENTER,MEAN_ANOMALY,EPHEMERIS_TYPE,CLASSIFICATION_TYPE,NORAD_CAT_ID,ELEMENT_SET_NO,REV_AT_EPOCH,BSTAR,MEAN_MOTION_DOT,MEAN_MOTION_DDOT
CORVUS BC4,2018-099K,2026-07-07T08:46:12.510048,15.12661802,.00065305,97.4056,230.7555,295.3186,64.7368,0,U,43767,999,41545,.15049837E-3,.2569E-4,0
M2 PATHFINDER,2020-037E,2026-07-07T11:05:26.977920,15.04773632,.00132671,97.8158,19.9225,85.9111,274.3631,0,U,45727,999,32854,.13445734E-3,.1835E-4,0
NETSAT-4,2020-068U,2026-07-06T22:53:32.689248,15.44556008,.00037857,97.8607,197.7918,228.6166,131.4756,0,U,46504,999,31882,.29678825E-3,.13695E-3,0
NETSAT-3,2020-068V,2026-07-07T11:51:02.071008,15.43417698,.00031065,97.8658,196.5669,248.2229,111.8687,0,U,46505,999,31881,.2958585E-3,.13134E-3,0
NETSAT-1,2020-068W,2026-07-07T11:25:16.483008,15.35123692,.00026226,97.8754,190.6363,310.6729,49.4285,0,U,46506,999,31841,.24944053E-3,.8415E-4,0
NETSAT-2,2020-068X,2026-07-07T11:35:20.826816,15.46919793,.00014311,97.8623,198.3349,255.2599,104.8491,0,U,46507,999,31887,.3121288E-3,.15625E-3,0
GREENCUBE (IO-117),2022-080E,2026-07-07T06:16:24.697344,6.42583238,.00089686,70.1426,291.2647,285.4121,74.5548,0,U,53109,999,9335,0,-.3E-7,0
SITRO-AIS 5 (KATYS),2023-091L,2026-07-07T14:38:46.361184,15.29947404,.00114697,97.5048,252.7090,38.5292,321.6765,0,U,57176,999,16746,.28124015E-3,.8092E-4,0
SITRO-AIS 6 (CHIRKIN),2023-091AC,2026-07-07T13:42:37.407456,15.26340960,.00119549,97.5055,251.6792,42.2911,317.9247,0,U,57192,999,16739,.25659701E-3,.6604E-4,0
SITRO-AIS 8 (ANOKHIN),2023-091AD,2026-07-07T14:11:05.458560,15.32718952,.00103076,97.5043,254.3625,34.6388,325.5524,0,U,57193,999,16757,.31456304E-3,.9877E-4,0
SITRO-AIS 7 (FARTUSHNIY),2023-091AE,2026-07-07T12:18:49.218624,15.26018341,.0011906,97.5051,251.4352,43.5906,316.6271,0,U,57194,999,16737,.27777341E-3,.7086E-4,0
SITRO-AIS 10 (BURDAEV),2023-091AK,2026-07-07T14:24:32.974560,15.39423147,.00055816,97.5068,259.6405,12.1352,348.0027,0,U,57199,999,16790,.36305113E-3,.14144E-3,0
SITRO-AIS 9 (SHCHUKIN),2023-091AM,2026-07-07T13:38:27.396960,15.38912472,.00058703,97.5065,259.3213,12.2563,347.8824,0,U,57201,999,16788,.34828893E-3,.1334E-3,0
SITRO-AIS 12 (SMIRENNIY),2023-091AQ,2026-07-07T11:45:45.023616,15.39203506,.00053871,97.5079,259.7212,6.2833,353.8479,0,U,57204,999,16789,.35487698E-3,.13723E-3,0
SITRO-AIS 11 (SHEFFER),2023-091AU,2026-07-07T13:30:28.072224,15.39646470,.0005284,97.5077,260.0552,5.6225,354.5079,0,U,57208,999,16792,.36713322E-3,.14409E-3,0
SITRO-AIS 25,2024-039R,2026-07-07T14:37:25.343040,14.93616730,.01423578,95.3897,249.1265,256.3966,102.1371,0,U,59066,999,12777,.1175955E-3,.1478E-4,0
SITRO-AIS 26,2024-039S,2026-07-07T14:43:26.348160,14.93408427,.01427185,95.3897,249.0228,256.9948,101.5311,0,U,59067,999,12776,.10879525E-3,.1358E-4,0
SITRO-AIS 27,2024-039T,2026-07-07T15:28:47.261280,14.93831467,.01417329,95.3898,249.3256,255.3936,103.1538,0,U,59068,999,12779,.19026199E-3,.2425E-4,0
SITRO-AIS 28,2024-039U,2026-07-07T14:55:38.184672,14.93864439,.01417108,95.3899,249.3583,255.3412,103.2068,0,U,59071,999,12779,.12572689E-3,.1591E-4,0
GRBBETA,2024-128C,2026-07-07T11:04:37.710912,15.06772780,.00379974,61.9890,145.1259,138.9442,221.4522,0,U,60237,999,10932,.17646117E-3,.246E-4,0
OOV-CUBE (TUBSAT-30),2024-128F,2026-07-06T10:01:45.352992,15.02848993,.00422051,61.9939,158.5121,138.0070,222.4270,0,U,60240,999,10900,.16592493E-3,.2062E-4,0
ROBUSTA-3A (MEDITERRANEE),2024-128J,2026-07-07T08:59:19.527648,15.11910592,.00388837,61.9856,136.8423,132.1641,228.2768,0,U,60243,999,10947,.29666161E-3,.4972E-4,0
LASARSAT,2024-247Q,2026-07-07T06:03:36.515808,15.47649920,.00065119,44.9725,149.3564,108.5559,251.6039,0,U,62391,999,8642,.50876345E-3,.26614E-3,0
CROCUBE,2024-247T,2026-07-05T08:31:43.923072,15.49608608,.0006223,44.9708,157.0633,99.0627,261.0968,0,U,62394,999,8616,.11046E-2,.62671E-3,0
FORESAIL-1 PRIME,2025-276DS,2026-07-07T03:46:10.026336,15.18890815,.00034404,97.4189,261.0640,61.9701,298.1881,0,U,66778,999,3343,.18903866E-3,.3876E-4,0
KNACKSAT-2,1998-067XZ,2026-07-06T10:19:34.257504,15.61755488,.00082597,51.6265,197.5608,296.8985,63.1164,0,U,67683,999,2328,.57854596E-3,.50889E-3,0
